{
  "type": "FeatureCollection",
  "features": [
    {
      "type": "Feature",
      "id": "camburi",
      "properties": {
        "id": "camburi",
        "nome": "Jardim Camburi",
        "potencialAnualGwh": 14.8,
        "casasMapeadas": 2450,
        "irradiacaoMedia": 5.48,
        "fatorAproveitamento": 0.82,
        "coordenadasExemplo": {
          "lat": -20.27054,
          "lng": -40.29021,
          "zoom": 19
        }
      },
      "geometry": {
        "type": "Polygon",
        "coordinates": [
          [
            [-40.2980, -20.2620],
            [-40.2820, -20.2650],
            [-40.2850, -20.2780],
            [-40.2990, -20.2750],
            [-40.2980, -20.2620]
          ]
        ]
      }
    },
    {
      "type": "Feature",
      "id": "praia_do_canto",
      "properties": {
        "id": "praia_do_canto",
        "nome": "Praia do Canto",
        "potencialAnualGwh": 11.2,
        "casasMapeadas": 1820,
        "irradiacaoMedia": 5.52,
        "fatorAproveitamento": 0.85,
        "coordenadasExemplo": {
          "lat": -20.30612,
          "lng": -40.29145,
          "zoom": 19
        }
      },
      "geometry": {
        "type": "Polygon",
        "coordinates": [
          [
            [-40.2960, -20.3000],
            [-40.2840, -20.3020],
            [-40.2870, -20.3140],
            [-40.2970, -20.3110],
            [-40.2960, -20.3000]
          ]
        ]
      }
    },
    {
      "type": "Feature",
      "id": "jardim_da_penha",
      "properties": {
        "id": "jardim_da_penha",
        "nome": "Jardim da Penha",
        "potencialAnualGwh": 13.5,
        "casasMapeadas": 2180,
        "irradiacaoMedia": 5.49,
        "fatorAproveitamento": 0.81,
        "coordenadasExemplo": {
          "lat": -20.28834,
          "lng": -40.29280,
          "zoom": 19
        }
      },
      "geometry": {
        "type": "Polygon",
        "coordinates": [
          [
            [-40.2980, -20.2790],
            [-40.2860, -20.2820],
            [-40.2890, -20.2960],
            [-40.2990, -20.2940],
            [-40.2980, -20.2790]
          ]
        ]
      }
    },
    {
      "type": "Feature",
      "id": "enseada_do_sua",
      "properties": {
        "id": "enseada_do_sua",
        "nome": "Enseada do Suá",
        "potencialAnualGwh": 9.7,
        "casasMapeadas": 940,
        "irradiacaoMedia": 5.55,
        "fatorAproveitamento": 0.88,
        "coordenadasExemplo": {
          "lat": -20.31890,
          "lng": -40.28910,
          "zoom": 19
        }
      },
      "geometry": {
        "type": "Polygon",
        "coordinates": [
          [
            [-40.2940, -20.3150],
            [-40.2820, -20.3170],
            [-40.2840, -20.3270],
            [-40.2950, -20.3240],
            [-40.2940, -20.3150]
          ]
        ]
      }
    },
    {
      "type": "Feature",
      "id": "mata_da_praia",
      "properties": {
        "id": "mata_da_praia",
        "nome": "Mata da Praia",
        "potencialAnualGwh": 8.9,
        "casasMapeadas": 1150,
        "irradiacaoMedia": 5.50,
        "fatorAproveitamento": 0.84,
        "coordenadasExemplo": {
          "lat": -20.27640,
          "lng": -40.29450,
          "zoom": 19
        }
      },
      "geometry": {
        "type": "Polygon",
        "coordinates": [
          [
            [-40.2990, -20.2700],
            [-40.2870, -20.2720],
            [-40.2890, -20.2810],
            [-40.3000, -20.2790],
            [-40.2990, -20.2700]
          ]
        ]
      }
    },
    {
      "type": "Feature",
      "id": "bento_ferreira",
      "properties": {
        "id": "bento_ferreira",
        "nome": "Bento Ferreira",
        "potencialAnualGwh": 7.4,
        "casasMapeadas": 1280,
        "irradiacaoMedia": 5.46,
        "fatorAproveitamento": 0.79,
        "coordenadasExemplo": {
          "lat": -20.31560,
          "lng": -40.30420,
          "zoom": 19
        }
      },
      "geometry": {
        "type": "Polygon",
        "coordinates": [
          [
            [-40.3100, -20.3110],
            [-40.2980, -20.3130],
            [-40.3010, -20.3230],
            [-40.3120, -20.3210],
            [-40.3100, -20.3110]
          ]
        ]
      }
    },
    {
      "type": "Feature",
      "id": "santa_lucia",
      "properties": {
        "id": "santa_lucia",
        "nome": "Santa Lúcia",
        "potencialAnualGwh": 6.8,
        "casasMapeadas": 1020,
        "irradiacaoMedia": 5.47,
        "fatorAproveitamento": 0.80,
        "coordenadasExemplo": {
          "lat": -20.30920,
          "lng": -40.29870,
          "zoom": 19
        }
      },
      "geometry": {
        "type": "Polygon",
        "coordinates": [
          [
            [-40.3060, -20.3040],
            [-40.2940, -20.3060],
            [-40.2970, -20.3150],
            [-40.3080, -20.3130],
            [-40.3060, -20.3040]
          ]
        ]
      }
    }
  ]
}
